ONEWEB-0197             
1 48236U 21031AC  25221.60114976  .00000080  00000+0  18262-3 0  9995
2 48236  87.9067 351.6993 0001946 107.1374 252.9969 13.14503297207254
ONEWEB-0194             
1 48237U 21031AD  25221.35137438  .00000272  00000+0  70036-3 0  9996
2 48237  87.9083 351.7590 0002017  93.1873 266.9488 13.14504928207393
ONEWEB-0193             
1 48238U 21031AE  25221.59558682  .00000192  00000+0  48270-3 0  9997
2 48238  87.9075 351.7163 0001753  91.9562 268.1769 13.14501655207376
ONEWEB-0191             
1 48239U 21031AF  25221.60672293  .00006316  00000+0  16999-1 0  9990
2 48239  87.9077 351.6869 0001462 103.6119 256.5173 13.14471969207236
ONEWEB-0195             
1 48240U 21031AG  25220.89864061  .00000203  00000+0  51324-3 0  9990
2 48240  87.9078 351.8249 0001440  91.5526 268.5768 13.14501873207125
ONEWEB-0201             
1 48241U 21031AH  25221.11524700  .00000202  00000+0  50955-3 0  9998
2 48241  87.9081 351.8301 0001622 107.2083 252.9225 13.14502632207381
ONEWEB-0207             
1 48242U 21031AJ  25221.09527726 -.00000160  00000+0 -46583-3 0  9994
2 48242  87.9077 351.7936 0001772 105.4165 254.7161 13.14503572207290
ONEWEB-0208             
1 48243U 21031AK  25221.60985333 -.00000079  00000+0 -24624-3 0  9995
2 48243  87.9083 351.7066 0001645  95.2477 264.8841 13.14501603207372
ONEWEB-0200             
1 48244U 21031AL  25221.34503131  .00000250  00000+0  63870-3 0  9994
2 48244  87.9079 351.7504 0001754  96.9362 263.1967 13.14501795207268
ONEWEB-0217             
1 48245U 21031AM  25221.58924671  .00000227  00000+0  57699-3 0  9993
2 48245  87.9079 351.6865 0001550  91.6659 268.4648 13.14502389207245
ONEWEB-0211             
1 48767U 21045A   25221.57246784  .00000100  00000+0  22940-3 0  9999
2 48767  87.9084 321.2884 0001914  88.9473 271.1877 13.16083368203458
ONEWEB-0223             
1 48768U 21045B   25221.51033366  .00000155  00000+0  37822-3 0  9999
2 48768  87.9076 321.3507 0002002  84.3280 275.8078 13.15548298203426
ONEWEB-0230             
1 48769U 21045C   25221.55787870  .00000048  00000+0  92865-4 0  9990
2 48769  87.9068 321.3765 0002061 100.8067 259.3295 13.15548573203699
ONEWEB-0237             
1 48770U 21045D   25221.54677973  .00000018  00000+0  13168-4 0  9999
2 48770  87.9091 321.3668 0002034  90.0548 270.0816 13.15548603203416
ONEWEB-0235             
1 48771U 21045E   25221.59747812 -.00000011  00000+0 -63669-4 0  9991
2 48771  87.9084 321.3329 0002188  83.8968 276.2412 13.15550400203417
ONEWEB-0242             
1 48772U 21045F   25221.51507773  .00000119  00000+0  28269-3 0  9997
2 48772  87.9084 321.3342 0002093  94.8671 265.2698 13.15547807203445
ONEWEB-0241             
1 48773U 21045G   25221.57845914  .00000210  00000+0  52456-3 0  9993
2 48773  87.9069 321.3744 0001721  86.2521 273.8806 13.15550217203367
