[{"OBJECT_NAME":"ONEWEB-0197","OBJECT_ID":"2021-031AC","EPOCH":"2025-08-09T14:25:39.339264","MEAN_MOTION":13.14503297,"ECCENTRICITY":0.0001946,"INCLINATION":87.9067,"RA_OF_ASC_NODE":351.6993,"ARG_OF_PERICENTER":107.1374,"MEAN_ANOMALY":252.9969,"EPHEMERIS_TYPE":0,"CLASSIFICATION_TYPE":"U","NORAD_CAT_ID":48236,"ELEMENT_SET_NO":999,"REV_AT_EPOCH":20725,"BSTAR":0.00018262,"MEAN_MOTION_DOT":8.0e-7,"MEAN_MOTION_DDOT":0},{"OBJECT_NAME":"ONEWEB-0194","OBJECT_ID":"2021-031AD","EPOCH":"2025-08-09T08:25:58.746432","MEAN_MOTION":13.14504928,"ECCENTRICITY":0.0002017,"INCLINATION":87.9083,"RA_OF_ASC_NODE":351.759,"ARG_OF_PERICENTER":93.1873,"MEAN_ANOMALY":266.9488,"EPHEMERIS_TYPE":0,"CLASSIFICATION_TYPE":"U","NORAD_CAT_ID":48237,"ELEMENT_SET_NO":999,"REV_AT_EPOCH":20739,"BSTAR":0.00070036,"MEAN_MOTION_DOT":2.72e-6,"MEAN_MOTION_DDOT":0},{"OBJECT_NAME":"ONEWEB-0193","OBJECT_ID":"2021-031AE","EPOCH":"2025-08-09T14:17:38.701248","MEAN_MOTION":13.14501655,"ECCENTRICITY":0.0001753,"INCLINATION":87.9075,"RA_OF_ASC_NODE":351.7163,"ARG_OF_PERICENTER":91.9562,"MEAN_ANOMALY":268.1769,"EPHEMERIS_TYPE":0,"CLASSIFICATION_TYPE":"U","NORAD_CAT_ID":48238,"ELEMENT_SET_NO":999,"REV_AT_EPOCH":20737,"BSTAR":0.0004827,"MEAN_MOTION_DOT":1.92e-6,"MEAN_MOTION_DDOT":0},{"OBJECT_NAME":"ONEWEB-0191","OBJECT_ID":"2021-031AF","EPOCH":"2025-08-09T14:33:40.861152","MEAN_MOTION":13.14471969,"ECCENTRICITY":0.0001462,"INCLINATION":87.9077,"RA_OF_ASC_NODE":351.6869,"ARG_OF_PERICENTER":103.6119,"MEAN_ANOMALY":256.5173,"EPHEMERIS_TYPE":0,"CLASSIFICATION_TYPE":"U","NORAD_CAT_ID":48239,"ELEMENT_SET_NO":999,"REV_AT_EPOCH":20723,"BSTAR":0.016999,"MEAN_MOTION_DOT":6.316e-5,"MEAN_MOTION_DDOT":0},{"OBJECT_NAME":"ONEWEB-0195","OBJECT_ID":"2021-031AG","EPOCH":"2025-08-08T21:34:02.548704","MEAN_MOTION":13.14501873,"ECCENTRICITY":0.000144,"INCLINATION":87.9078,"RA_OF_ASC_NODE":351.8249,"ARG_OF_PERICENTER":91.5526,"MEAN_ANOMALY":268.5768,"EPHEMERIS_TYPE":0,"CLASSIFICATION_TYPE":"U","NORAD_CAT_ID":48240,"ELEMENT_SET_NO":999,"REV_AT_EPOCH":20712,"BSTAR":0.00051324,"MEAN_MOTION_DOT":2.03e-6,"MEAN_MOTION_DDOT":0},{"OBJECT_NAME":"ONEWEB-0201","OBJECT_ID":"2021-031AH","EPOCH":"2025-08-09T02:45:57.340800","MEAN_MOTION":13.14502632,"ECCENTRICITY":0.0001622,"INCLINATION":87.9081,"RA_OF_ASC_NODE":351.8301,"ARG_OF_PERICENTER":107.2083,"MEAN_ANOMALY":252.9225,"EPHEMERIS_TYPE":0,"CLASSIFICATION_TYPE":"U","NORAD_CAT_ID":48241,"ELEMENT_SET_NO":999,"REV_AT_EPOCH":20738,"BSTAR":0.00050955,"MEAN_MOTION_DOT":2.02e-6,"MEAN_MOTION_DDOT":0},{"OBJECT_NAME":"ONEWEB-0207","OBJECT_ID":"2021-031AJ","EPOCH":"2025-08-09T02:17:11.955264","MEAN_MOTION":13.14503572,"ECCENTRICITY":0.0001772,"INCLINATION":87.9077,"RA_OF_ASC_NODE":351.7936,"ARG_OF_PERICENTER":105.4165,"MEAN_ANOMALY":254.7161,"EPHEMERIS_TYPE":0,"CLASSIFICATION_TYPE":"U","NORAD_CAT_ID":48242,"ELEMENT_SET_NO":999,"REV_AT_EPOCH":20729,"BSTAR":-0.00046583,"MEAN_MOTION_DOT":-1.6e-6,"MEAN_MOTION_DDOT":0},{"OBJECT_NAME":"ONEWEB-0208","OBJECT_ID":"2021-031AK","EPOCH":"2025-08-09T14:38:11.327712","MEAN_MOTION":13.14501603,"ECCENTRICITY":0.0001645,"INCLINATION":87.9083,"RA_OF_ASC_NODE":351.7066,"ARG_OF_PERICENTER":95.2477,"MEAN_ANOMALY":264.8841,"EPHEMERIS_TYPE":0,"CLASSIFICATION_TYPE":"U","NORAD_CAT_ID":48243,"ELEMENT_SET_NO":999,"REV_AT_EPOCH":20737,"BSTAR":-0.00024624,"MEAN_MOTION_DOT":-7.9e-7,"MEAN_MOTION_DDOT":0},{"OBJECT_NAME":"ONEWEB-0200","OBJECT_ID":"2021-031AL","EPOCH":"2025-08-09T08:16:50.705184","MEAN_MOTION":13.14501795,"ECCENTRICITY":0.0001754,"INCLINATION":87.9079,"RA_OF_ASC_NODE":351.7504,"ARG_OF_PERICENTER":96.9362,"MEAN_ANOMALY":263.1967,"EPHEMERIS_TYPE":0,"CLASSIFICATION_TYPE":"U","NORAD_CAT_ID":48244,"ELEMENT_SET_NO":999,"REV_AT_EPOCH":20726,"BSTAR":0.0006387,"MEAN_MOTION_DOT":2.5e-6,"MEAN_MOTION_DDOT":0},{"OBJECT_NAME":"ONEWEB-0217","OBJECT_ID":"2021-031AM","EPOCH":"2025-08-09T14:08:30.915744","MEAN_MOTION":13.14502389,"ECCENTRICITY":0.000155,"INCLINATION":87.9079,"RA_OF_ASC_NODE":351.6865,"ARG_OF_PERICENTER":91.6659,"MEAN_ANOMALY":268.4648,"EPHEMERIS_TYPE":0,"CLASSIFICATION_TYPE":"U","NORAD_CAT_ID":48245,"ELEMENT_SET_NO":999,"REV_AT_EPOCH":20724,"BSTAR":0.00057699,"MEAN_MOTION_DOT":2.27e-6,"MEAN_MOTION_DDOT":0},{"OBJECT_NAME":"ONEWEB-0211","OBJECT_ID":"2021-045A","EPOCH":"2025-08-09T13:44:21.221376","MEAN_MOTION":13.16083368,"ECCENTRICITY":0.0001914,"INCLINATION":87.9084,"RA_OF_ASC_NODE":321.2884,"ARG_OF_PERICENTER":88.9473,"MEAN_ANOMALY":271.1877,"EPHEMERIS_TYPE":0,"CLASSIFICATION_TYPE":"U","NORAD_CAT_ID":48767,"ELEMENT_SET_NO":999,"REV_AT_EPOCH":20345,"BSTAR":0.0002294,"MEAN_MOTION_DOT":1.0e-6,"MEAN_MOTION_DDOT":0},{"OBJECT_NAME":"ONEWEB-0223","OBJECT_ID":"2021-045B","EPOCH":"2025-08-09T12:14:52.828224","MEAN_MOTION":13.15548298,"ECCENTRICITY":0.0002002,"INCLINATION":87.9076,"RA_OF_ASC_NODE":321.3507,"ARG_OF_PERICENTER":84.328,"MEAN_ANOMALY":275.8078,"EPHEMERIS_TYPE":0,"CLASSIFICATION_TYPE":"U","NORAD_CAT_ID":48768,"ELEMENT_SET_NO":999,"REV_AT_EPOCH":20342,"BSTAR":0.00037822,"MEAN_MOTION_DOT":1.55e-6,"MEAN_MOTION_DDOT":0},{"OBJECT_NAME":"ONEWEB-0230","OBJECT_ID":"2021-045C","EPOCH":"2025-08-09T13:23:20.719680","MEAN_MOTION":13.15548573,"ECCENTRICITY":0.0002061,"INCLINATION":87.9068,"RA_OF_ASC_NODE":321.3765,"ARG_OF_PERICENTER":100.8067,"MEAN_ANOMALY":259.3295,"EPHEMERIS_TYPE":0,"CLASSIFICATION_TYPE":"U","NORAD_CAT_ID":48769,"ELEMENT_SET_NO":999,"REV_AT_EPOCH":20369,"BSTAR":9.2865e-5,"MEAN_MOTION_DOT":4.8e-7,"MEAN_MOTION_DDOT":0},{"OBJECT_NAME":"ONEWEB-0237","OBJECT_ID":"2021-045D","EPOCH":"2025-08-09T13:07:21.768672","MEAN_MOTION":13.15548603,"ECCENTRICITY":0.0002034,"INCLINATION":87.9091,"RA_OF_ASC_NODE":321.3668,"ARG_OF_PERICENTER":90.0548,"MEAN_ANOMALY":270.0816,"EPHEMERIS_TYPE":0,"CLASSIFICATION_TYPE":"U","NORAD_CAT_ID":48770,"ELEMENT_SET_NO":999,"REV_AT_EPOCH":20341,"BSTAR":1.3168e-5,"MEAN_MOTION_DOT":1.8e-7,"MEAN_MOTION_DDOT":0},{"OBJECT_NAME":"ONEWEB-0235","OBJECT_ID":"2021-045E","EPOCH":"2025-08-09T14:20:22.109568","MEAN_MOTION":13.155504,"ECCENTRICITY":0.0002188,"INCLINATION":87.9084,"RA_OF_ASC_NODE":321.3329,"ARG_OF_PERICENTER":83.8968,"MEAN_ANOMALY":276.2412,"EPHEMERIS_TYPE":0,"CLASSIFICATION_TYPE":"U","NORAD_CAT_ID":48771,"ELEMENT_SET_NO":999,"REV_AT_EPOCH":20341,"BSTAR":-6.3669e-5,"MEAN_MOTION_DOT":-1.1e-7,"MEAN_MOTION_DDOT":0},{"OBJECT_NAME":"ONEWEB-0242","OBJECT_ID":"2021-045F","EPOCH":"2025-08-09T12:21:42.715872","MEAN_MOTION":13.15547807,"ECCENTRICITY":0.0002093,"INCLINATION":87.9084,"RA_OF_ASC_NODE":321.3342,"ARG_OF_PERICENTER":94.8671,"MEAN_ANOMALY":265.2698,"EPHEMERIS_TYPE":0,"CLASSIFICATION_TYPE":"U","NORAD_CAT_ID":48772,"ELEMENT_SET_NO":999,"REV_AT_EPOCH":20344,"BSTAR":0.00028269,"MEAN_MOTION_DOT":1.19e-6,"MEAN_MOTION_DDOT":0},{"OBJECT_NAME":"ONEWEB-0241","OBJECT_ID":"2021-045G","EPOCH":"2025-08-09T13:52:58.869696","MEAN_MOTION":13.15550217,"ECCENTRICITY":0.0001721,"INCLINATION":87.9069,"RA_OF_ASC_NODE":321.3744,"ARG_OF_PERICENTER":86.2521,"MEAN_ANOMALY":273.8806,"EPHEMERIS_TYPE":0,"CLASSIFICATION_TYPE":"U","NORAD_CAT_ID":48773,"ELEMENT_SET_NO":999,"REV_AT_EPOCH":20336,"BSTAR":0.00052456,"MEAN_MOTION_DOT":2.1e-6,"MEAN_MOTION_DDOT":0}]
